[{"OBJECT_NAME":"ONEWEB-0540","OBJECT_ID":"2022-166D","EPOCH":"2026-03-09T21:47:48.093792","MEAN_MOTION":13.21825009,"ECCENTRICITY":0.0001487,"INCLINATION":87.9164,"RA_OF_ASC_NODE":263.7997,"ARG_OF_PERICENTER":91.4302,"MEAN_ANOMALY":268.7002,"EPHEMERIS_TYPE":0,"CLASSIFICATION_TYPE":"U","NORAD_CAT_ID":54645,"ELEMENT_SET_NO":999,"REV_AT_EPOCH":15841,"BSTAR":0.00016602844,"MEAN_MOTION_DOT":8.2e-7,"MEAN_MOTION_DDOT":0},{"OBJECT_NAME":"NOVA 1","OBJECT_ID":"1981-044A","EPOCH":"2026-03-09T23:44:36.716640","MEAN_MOTION":13.23287337,"ECCENTRICITY":0.00130269,"INCLINATION":89.842,"RA_OF_ASC_NODE":90.1115,"ARG_OF_PERICENTER":217.6651,"MEAN_ANOMALY":201.8697,"EPHEMERIS_TYPE":0,"CLASSIFICATION_TYPE":"U","NORAD_CAT_ID":12458,"ELEMENT_SET_NO":999,"REV_AT_EPOCH":16340,"BSTAR":5.1340553e-5,"MEAN_MOTION_DOT":3.1e-7,"MEAN_MOTION_DDOT":0}]
